{
  "type": "FeatureCollection",
  "features": [
    {
      "type": "Feature",
      "properties": {
        "norad_id": 46277,
        "name": "NEMO-HD",
        "group": "resource",
        "lat": -43.317833371598354,
        "lon": 63.03994206394743,
        "alt_km": 451.35180274878803,
        "timestamp": "2025-12-23T05:02:11.681357+00:00",
        "meta_object_name": "NEMO-HD",
        "meta_object_id": "2020-061F",
        "meta_epoch": "2025-12-22T22:59:25.613376",
        "meta_mean_motion": 15.40526473,
        "meta_eccentricity": 0.00012171,
        "meta_inclination": 97.2193,
        "meta_ra_of_asc_node": 55.9263,
        "meta_arg_of_pericenter": 52.3415,
        "meta_mean_anomaly": 307.7942,
        "meta_ephemeris_type": 0,
        "meta_classification_type": "U",
        "meta_norad_cat_id": 46277,
        "meta_element_set_no": 999,
        "meta_rev_at_epoch": 29481,
        "meta_bstar": 0.00027843673,
        "meta_mean_motion_dot": 0.00011224,
        "meta_mean_motion_ddot": 0,
        "tle_line1": "1 46277U 20061F   25356.95793534  .00011224  00000+0  27844-3 0  9998",
        "tle_line2": "2 46277  97.2193  55.9263 0001217  52.3415 307.7942 15.40526473294813"
      },
      "geometry": {
        "type": "Point",
        "coordinates": [
          63.03994206394743,
          -43.317833371598354
        ]
      }
    },
    {
      "type": "Feature",
      "properties": {
        "norad_id": 46984,
        "name": "SENTINEL-6A",
        "group": "resource",
        "lat": 39.57622273543635,
        "lon": -61.002105921054046,
        "alt_km": 1337.8108250990017,
        "timestamp": "2025-12-23T05:02:11.681367+00:00",
        "meta_object_name": "SENTINEL-6A",
        "meta_object_id": "2020-086A",
        "meta_epoch": "2025-12-22T17:05:12.936192",
        "meta_mean_motion": 12.80930802,
        "meta_eccentricity": 0.00077221,
        "meta_inclination": 66.0396,
        "meta_ra_of_asc_node": 141.5954,
        "meta_arg_of_pericenter": 269.3659,
        "meta_mean_anomaly": 90.6472,
        "meta_ephemeris_type": 0,
        "meta_classification_type": "U",
        "meta_norad_cat_id": 46984,
        "meta_element_set_no": 999,
        "meta_rev_at_epoch": 23772,
        "meta_bstar": -3.956609e-05,
        "meta_mean_motion_dot": -7e-07,
        "meta_mean_motion_ddot": 0,
        "tle_line1": "1 46984U 20086A   25356.71195528 -.00000070  00000+0 -39566-4 0  9997",
        "tle_line2": "2 46984  66.0396 141.5954 0007722 269.3659  90.6472 12.80930802237722"
      },
      "geometry": {
        "type": "Point",
        "coordinates": [
          -61.002105921054046,
          39.57622273543635
        ]
      }
    },
    {
      "type": "Feature",
      "properties": {
        "norad_id": 48079,
        "name": "GAOFEN-12 02",
        "group": "resource",
        "lat": -30.06190452801414,
        "lon": -4.173615345146447,
        "alt_km": 633.9970160938692,
        "timestamp": "2025-12-23T05:02:11.681378+00:00",
        "meta_object_name": "GAOFEN-12 02",
        "meta_object_id": "2021-026A",
        "meta_epoch": "2025-12-22T22:41:10.020768",
        "meta_mean_motion": 14.80686884,
        "meta_eccentricity": 0.00035809,
        "meta_inclination": 97.9856,
        "meta_ra_of_asc_node": 350.9026,
        "meta_arg_of_pericenter": 80.6512,
        "meta_mean_anomaly": 279.5105,
        "meta_ephemeris_type": 0,
        "meta_classification_type": "U",
        "meta_norad_cat_id": 48079,
        "meta_element_set_no": 999,
        "meta_rev_at_epoch": 25568,
        "meta_bstar": 7.212022e-05,
        "meta_mean_motion_dot": 5.02e-06,
        "meta_mean_motion_ddot": 0,
        "tle_line1": "1 48079U 21026A   25356.94525487  .00000502  00000+0  72120-4 0  9996",
        "tle_line2": "2 48079  97.9856 350.9026 0003580  80.6512 279.5105 14.80686884255685"
      },
      "geometry": {
        "type": "Point",
        "coordinates": [
          -4.173615345146447,
          -30.06190452801414
        ]
      }
    },
    {
      "type": "Feature",
      "properties": {
        "norad_id": 48268,
        "name": "PLEIADES NEO 3",
        "group": "resource",
        "lat": 72.15363348538871,
        "lon": 43.97039712253234,
        "alt_km": 616.1507648639681,
        "timestamp": "2025-12-23T05:02:11.681387+00:00",
        "meta_object_name": "PLEIADES NEO 3",
        "meta_object_id": "2021-034A",
        "meta_epoch": "2025-12-22T23:50:30.452928",
        "meta_mean_motion": 14.81674396,
        "meta_eccentricity": 0.00014028,
        "meta_inclination": 97.8947,
        "meta_ra_of_asc_node": 69.2875,
        "meta_arg_of_pericenter": 89.2826,
        "meta_mean_anomaly": 270.8548,
        "meta_ephemeris_type": 0,
        "meta_classification_type": "U",
        "meta_norad_cat_id": 48268,
        "meta_element_set_no": 999,
        "meta_rev_at_epoch": 25156,
        "meta_bstar": 1.6070835e-05,
        "meta_mean_motion_dot": 7.4e-07,
        "meta_mean_motion_ddot": 0,
        "tle_line1": "1 48268U 21034A   25356.99340802  .00000074  00000+0  16071-4 0  9993",
        "tle_line2": "2 48268  97.8947  69.2875 0001402  89.2826 270.8548 14.81674396251565"
      },
      "geometry": {
        "type": "Point",
        "coordinates": [
          43.97039712253234,
          72.15363348538871
        ]
      }
    },
    {
      "type": "Feature",
      "properties": {
        "norad_id": 49070,
        "name": "PLEIADES NEO 4",
        "group": "resource",
        "lat": -72.2528928365624,
        "lon": -136.1983640900207,
        "alt_km": 632.2733382256665,
        "timestamp": "2025-12-23T05:02:11.681397+00:00",
        "meta_object_name": "PLEIADES NEO 4",
        "meta_object_id": "2021-073E",
        "meta_epoch": "2025-12-20T17:32:43.596096",
        "meta_mean_motion": 14.81672155,
        "meta_eccentricity": 0.00013181,
        "meta_inclination": 97.8951,
        "meta_ra_of_asc_node": 67.0539,
        "meta_arg_of_pericenter": 90.4145,
        "meta_mean_anomaly": 269.7219,
        "meta_ephemeris_type": 0,
        "meta_classification_type": "U",
        "meta_norad_cat_id": 49070,
        "meta_element_set_no": 999,
        "meta_rev_at_epoch": 23494,
        "meta_bstar": -3.817265e-05,
        "meta_mean_motion_dot": -3.52e-06,
        "meta_mean_motion_ddot": 0,
        "tle_line1": "1 49070U 21073E   25354.73106014 -.00000352  00000+0 -38173-4 0  9991",
        "tle_line2": "2 49070  97.8951  67.0539 0001318  90.4145 269.7219 14.81672155234945"
      },
      "geometry": {
        "type": "Point",
        "coordinates": [
          -136.1983640900207,
          -72.2528928365624
        ]
      }
    },
    {
      "type": "Feature",
      "properties": {
        "norad_id": 49260,
        "name": "LANDSAT 9",
        "group": "resource",
        "lat": 64.85773485972756,
        "lon": 47.25704012438331,
        "alt_km": 695.4822793094254,
        "timestamp": "2025-12-23T05:02:11.681407+00:00",
        "meta_object_name": "LANDSAT 9",
        "meta_object_id": "2021-088A",
        "meta_epoch": "2025-12-22T17:11:51.339552",
        "meta_mean_motion": 14.57107727,
        "meta_eccentricity": 0.00011029,
        "meta_inclination": 98.2081,
        "meta_ra_of_asc_node": 64.6824,
        "meta_arg_of_pericenter": 92.5416,
        "meta_mean_anomaly": 267.5909,
        "meta_ephemeris_type": 0,
        "meta_classification_type": "U",
        "meta_norad_cat_id": 49260,
        "meta_element_set_no": 999,
        "meta_rev_at_epoch": 22530,
        "meta_bstar": 9.8395369e-05,
        "meta_mean_motion_dot": 3.98e-06,
        "meta_mean_motion_ddot": 0,
        "tle_line1": "1 49260U 21088A   25356.71656643  .00000398  00000+0  98395-4 0  9996",
        "tle_line2": "2 49260  98.2081  64.6824 0001102  92.5416 267.5909 14.57107727225303"
      },
      "geometry": {
        "type": "Point",
        "coordinates": [
          47.25704012438331,
          64.85773485972756
        ]
      }
    },
    {
      "type": "Feature",
      "properties": {
        "norad_id": 51444,
        "name": "CSG-2",
        "group": "resource",
        "lat": -54.56764110677606,
        "lon": -170.40065673120827,
        "alt_km": 630.3366208095649,
        "timestamp": "2025-12-23T05:02:11.681418+00:00",
        "meta_object_name": "CSG-2",
        "meta_object_id": "2022-008A",
        "meta_epoch": "2025-12-22T22:48:17.606592",
        "meta_mean_motion": 14.82156187,
        "meta_eccentricity": 0.00015227,
        "meta_inclination": 97.88,
        "meta_ra_of_asc_node": 178.1192,
        "meta_arg_of_pericenter": 82.1379,
        "meta_mean_anomaly": 278.0007,
        "meta_ephemeris_type": 0,
        "meta_classification_type": "U",
        "meta_norad_cat_id": 51444,
        "meta_element_set_no": 999,
        "meta_rev_at_epoch": 21048,
        "meta_bstar": 0.00014737553,
        "meta_mean_motion_dot": 1.121e-05,
        "meta_mean_motion_ddot": 0,
        "tle_line1": "1 51444U 22008A   25356.95020378  .00001121  00000+0  14738-3 0  9995",
        "tle_line2": "2 51444  97.8800 178.1192 0001522  82.1379 278.0007 14.82156187210483"
      },
      "geometry": {
        "type": "Point",
        "coordinates": [
          -170.40065673120827,
          -54.56764110677606
        ]
      }
    }
  ]
}